start=new Date('2021-10-31T00:00:00.000Z').valueOf();
sats=[{"DECAY_DATE":null,"OBJECT_TYPE":"PAYLOAD","ECCENTRICITY":"0.00012360","EPHEMERIS_TYPE":"0","SEMIMAJOR_AXIS":"6925.350","LAUNCH_DATE":"2021-04-29","MEAN_MOTION_DDOT":"0.0000000000000","OBJECT_ID":"2021-036Q","NORAD_CAT_ID":"48290","MEAN_ELEMENT_THEORY":"SGP4","RCS_SIZE":"LARGE","CENTER_NAME":"EARTH","TLE_LINE1":"1 48290U 21036Q   21303.70656243 -.00000199  00000-0  55374-5 0  9996","TIME_SYSTEM":"UTC","RA_OF_ASC_NODE":"23.8294","FILE":"3192951","ARG_OF_PERICENTER":"89.6963","INCLINATION":"53.0563","EPOCH":"2021-10-30T16:57:26.993952","PERIAPSIS":"546.359","MEAN_MOTION_DOT":"-0.00000199","ELEMENT_SET_NO":"999","PERIOD":"95.592","CLASSIFICATION_TYPE":"U","BSTAR":"0.00000553740000","OBJECT_NAME":"STARLINK-2540","MEAN_ANOMALY":"270.4168","REF_FRAME":"TEME","SITE":"AFETR","REV_AT_EPOCH":"2909","TLE_LINE2":"2 48290  53.0563  23.8294 0001236  89.6963 270.4168 15.06399667 29098","MEAN_MOTION":"15.06399667","GP_ID":"188518203","COUNTRY_CODE":"US","APOAPSIS":"548.071"},{"OBJECT_NAME":"STARLINK-2555","BSTAR":"0.00012659000000","CLASSIFICATION_TYPE":"U","PERIOD":"95.592","ELEMENT_SET_NO":"999","PERIAPSIS":"546.514","MEAN_MOTION_DOT":"0.00001605","EPOCH":"2021-10-30T16:52:09.776352","INCLINATION":"53.0565","APOAPSIS":"547.920","COUNTRY_CODE":"US","GP_ID":"188526214","MEAN_MOTION":"15.06398802","REV_AT_EPOCH":"2909","TLE_LINE2":"2 48291  53.0565  23.8368 0001015  99.0640 261.0464 15.06398802 29090","SITE":"AFETR","REF_FRAME":"TEME","MEAN_ANOMALY":"261.0464","OBJECT_ID":"2021-036R","MEAN_MOTION_DDOT":"0.0000000000000","LAUNCH_DATE":"2021-04-29","SEMIMAJOR_AXIS":"6925.352","EPHEMERIS_TYPE":"0","ECCENTRICITY":"0.00010150","OBJECT_TYPE":"PAYLOAD","DECAY_DATE":null,"FILE":"3193285","ARG_OF_PERICENTER":"99.0640","RA_OF_ASC_NODE":"23.8368","TIME_SYSTEM":"UTC","TLE_LINE1":"1 48291U 21036R   21303.70289093  .00001605  00000-0  12659-3 0  9991","CENTER_NAME":"EARTH","RCS_SIZE":"LARGE","NORAD_CAT_ID":"48291","MEAN_ELEMENT_THEORY":"SGP4"},{"BSTAR":"0.00013721000000","OBJECT_NAME":"STARLINK-2542","CLASSIFICATION_TYPE":"U","EPOCH":"2021-10-30T13:34:23.342016","INCLINATION":"53.0567","MEAN_MOTION_DOT":"0.00001763","PERIAPSIS":"546.325","PERIOD":"95.592","ELEMENT_SET_NO":"999","GP_ID":"188525510","COUNTRY_CODE":"US","APOAPSIS":"548.043","REV_AT_EPOCH":"2907","TLE_LINE2":"2 48292  53.0567  24.4490 0001241  89.9709 270.1422 15.06409652 29070","MEAN_MOTION":"15.06409652","MEAN_ANOMALY":"270.1422","REF_FRAME":"TEME","SITE":"AFETR","MEAN_MOTION_DDOT":"0.0000000000000","OBJECT_ID":"2021-036S","EPHEMERIS_TYPE":"0","SEMIMAJOR_AXIS":"6925.319","LAUNCH_DATE":"2021-04-29","OBJECT_TYPE":"PAYLOAD","ECCENTRICITY":"0.00012410","DECAY_DATE":null,"TLE_LINE1":"1 48292U 21036S   21303.56554794  .00001763  00000-0  13721-3 0  9995","TIME_SYSTEM":"UTC","RA_OF_ASC_NODE":"24.4490","ARG_OF_PERICENTER":"89.9709","FILE":"3193271","MEAN_ELEMENT_THEORY":"SGP4","NORAD_CAT_ID":"48292","RCS_SIZE":"MEDIUM","CENTER_NAME":"EARTH"},{"GP_ID":"188518798","COUNTRY_CODE":"US","APOAPSIS":"547.950","TLE_LINE2":"2 48293  53.0565  23.8633 0001059  83.2923 276.8187 15.06398911 29091","REV_AT_EPOCH":"2909","MEAN_MOTION":"15.06398911","MEAN_ANOMALY":"276.8187","REF_FRAME":"TEME","SITE":"AFETR","BSTAR":"0.00005397900000","OBJECT_NAME":"STARLINK-2550","CLASSIFICATION_TYPE":"U","EPOCH":"2021-10-30T16:41:31.770240","INCLINATION":"53.0565","PERIAPSIS":"546.484","MEAN_MOTION_DOT":"0.00000523","ELEMENT_SET_NO":"999","PERIOD":"95.592","TLE_LINE1":"1 48293U 21036T   21303.69550660  .00000523  00000-0  53979-4 0  9991","RA_OF_ASC_NODE":"23.8633","TIME_SYSTEM":"UTC","FILE":"3192962","ARG_OF_PERICENTER":"83.2923","NORAD_CAT_ID":"48293","MEAN_ELEMENT_THEORY":"SGP4","RCS_SIZE":"LARGE","CENTER_NAME":"EARTH","MEAN_MOTION_DDOT":"0.0000000000000","OBJECT_ID":"2021-036T","EPHEMERIS_TYPE":"0","LAUNCH_DATE":"2021-04-29","SEMIMAJOR_AXIS":"6925.352","OBJECT_TYPE":"PAYLOAD","ECCENTRICITY":"0.00010590","DECAY_DATE":null},{"INCLINATION":"53.0567","EPOCH":"2021-10-30T11:49:35.909472","PERIAPSIS":"546.268","MEAN_MOTION_DOT":"0.00003600","PERIOD":"95.592","ELEMENT_SET_NO":"999","BSTAR":"0.00026043000000","OBJECT_NAME":"STARLINK-2533","CLASSIFICATION_TYPE":"U","TLE_LINE2":"2 48294  53.0567  24.7876 0001345  83.3770 276.7372 15.06404682 29067","REV_AT_EPOCH":"2906","MEAN_MOTION":"15.06404682","MEAN_ANOMALY":"276.7372","REF_FRAME":"TEME","SITE":"AFETR","GP_ID":"188520691","COUNTRY_CODE":"US","APOAPSIS":"548.131","OBJECT_TYPE":"PAYLOAD","ECCENTRICITY":"0.00013450","DECAY_DATE":null,"MEAN_MOTION_DDOT":"0.0000000000000","OBJECT_ID":"2021-036U","EPHEMERIS_TYPE":"0","LAUNCH_DATE":"2021-04-29","SEMIMAJOR_AXIS":"6925.334","MEAN_ELEMENT_THEORY":"SGP4","NORAD_CAT_ID":"48294","RCS_SIZE":"LARGE","CENTER_NAME":"EARTH","TLE_LINE1":"1 48294U 21036U   21303.49277673  .00003600  00000-0  26043-3 0  9990","RA_OF_ASC_NODE":"24.7876","TIME_SYSTEM":"UTC","ARG_OF_PERICENTER":"83.3770","FILE":"3193042"},{"APOAPSIS":"548.085","COUNTRY_CODE":"US","GP_ID":"188517705","SITE":"AFETR","REF_FRAME":"TEME","MEAN_ANOMALY":"277.4932","MEAN_MOTION":"15.06396399","REV_AT_EPOCH":"2908","TLE_LINE2":"2 48295  53.0565  24.2101 0001243  82.6198 277.4932 15.06396399 29082","CLASSIFICATION_TYPE":"U","OBJECT_NAME":"STARLINK-2535","BSTAR":"0.00009776900000","ELEMENT_SET_NO":"999","PERIOD":"95.592","PERIAPSIS":"546.364","MEAN_MOTION_DOT":"0.00001175","INCLINATION":"53.0565","EPOCH":"2021-10-30T14:55:22.394208","FILE":"3192958","ARG_OF_PERICENTER":"82.6198","RA_OF_ASC_NODE":"24.2101","TIME_SYSTEM":"UTC","TLE_LINE1":"1 48295U 21036V   21303.62178697  .00001175  00000-0  97769-4 0  9991","CENTER_NAME":"EARTH","RCS_SIZE":"LARGE","NORAD_CAT_ID":"48295","MEAN_ELEMENT_THEORY":"SGP4","SEMIMAJOR_AXIS":"6925.360","LAUNCH_DATE":"2021-04-29","EPHEMERIS_TYPE":"0","OBJECT_ID":"2021-036V","MEAN_MOTION_DDOT":"0.0000000000000","DECAY_DATE":null,"ECCENTRICITY":"0.00012430","OBJECT_TYPE":"PAYLOAD"},{"RCS_SIZE":"LARGE","CENTER_NAME":"EARTH","NORAD_CAT_ID":"48296","MEAN_ELEMENT_THEORY":"SGP4","FILE":"3192980","ARG_OF_PERICENTER":"90.8788","TLE_LINE1":"1 48296U 21036W   21303.75080181  .00001302  00000-0  10627-3 0  9995","RA_OF_ASC_NODE":"23.6276","TIME_SYSTEM":"UTC","OBJECT_TYPE":"PAYLOAD","ECCENTRICITY":"0.00011030","DECAY_DATE":null,"OBJECT_ID":"2021-036W","MEAN_MOTION_DDOT":"0.0000000000000","LAUNCH_DATE":"2021-04-29","SEMIMAJOR_AXIS":"6925.344","EPHEMERIS_TYPE":"0","MEAN_MOTION":"15.06401575","TLE_LINE2":"2 48296  53.0556  23.6276 0001103  90.8788 269.2327 15.06401575 29103","REV_AT_EPOCH":"2910","REF_FRAME":"TEME","SITE":"AFETR","MEAN_ANOMALY":"269.2327","APOAPSIS":"547.973","GP_ID":"188518597","COUNTRY_CODE":"US","PERIAPSIS":"546.445","MEAN_MOTION_DOT":"0.00001302","PERIOD":"95.592","ELEMENT_SET_NO":"999","INCLINATION":"53.0556","EPOCH":"2021-10-30T18:01:09.276384","OBJECT_NAME":"STARLINK-2546","BSTAR":"0.00010627000000","CLASSIFICATION_TYPE":"U"},{"MEAN_MOTION":"15.06398121","REV_AT_EPOCH":"2846","TLE_LINE2":"2 48297  53.0575  25.4329 0001309  84.6474 275.4664 15.06398121 28468","REF_FRAME":"TEME","SITE":"AFETR","MEAN_ANOMALY":"275.4664","APOAPSIS":"548.126","GP_ID":"188516233","COUNTRY_CODE":"US","PERIAPSIS":"546.313","MEAN_MOTION_DOT":"0.00000719","ELEMENT_SET_NO":"999","PERIOD":"95.592","EPOCH":"2021-10-30T08:22:36.341472","INCLINATION":"53.0575","OBJECT_NAME":"STARLINK-2544","BSTAR":"0.00006719000000","CLASSIFICATION_TYPE":"U","RCS_SIZE":"LARGE","CENTER_NAME":"EARTH","NORAD_CAT_ID":"48297","MEAN_ELEMENT_THEORY":"SGP4","ARG_OF_PERICENTER":"84.6474","FILE":"3192905","TLE_LINE1":"1 48297U 21036X   21303.34903173  .00000719  00000-0  67190-4 0  9995","RA_OF_ASC_NODE":"25.4329","TIME_SYSTEM":"UTC","OBJECT_TYPE":"PAYLOAD","ECCENTRICITY":"0.00013090","DECAY_DATE":null,"OBJECT_ID":"2021-036X","MEAN_MOTION_DDOT":"0.0000000000000","SEMIMAJOR_AXIS":"6925.354","LAUNCH_DATE":"2021-04-29","EPHEMERIS_TYPE":"0"},{"CLASSIFICATION_TYPE":"U","BSTAR":"0.00011954000000","OBJECT_NAME":"STARLINK-2559","EPOCH":"2021-10-30T14:39:27.282816","INCLINATION":"53.0558","ELEMENT_SET_NO":"999","PERIOD":"95.592","PERIAPSIS":"546.231","MEAN_MOTION_DOT":"0.00001500","COUNTRY_CODE":"US","GP_ID":"188518602","APOAPSIS":"548.189","MEAN_ANOMALY":"270.9639","SITE":"AFETR","REF_FRAME":"TEME","TLE_LINE2":"2 48298  53.0558  24.2564 0001414  89.1512 270.9639 15.06401148 29083","REV_AT_EPOCH":"2908","MEAN_MOTION":"15.06401148","EPHEMERIS_TYPE":"0","SEMIMAJOR_AXIS":"6925.345","LAUNCH_DATE":"2021-04-29","MEAN_MOTION_DDOT":"0.0000000000000","OBJECT_ID":"2021-036Y","DECAY_DATE":null,"ECCENTRICITY":"0.00014140","OBJECT_TYPE":"PAYLOAD","RA_OF_ASC_NODE":"24.2564","TIME_SYSTEM":"UTC","TLE_LINE1":"1 48298U 21036Y   21303.61073244  .00001500  00000-0  11954-3 0  9998","FILE":"3192981","ARG_OF_PERICENTER":"89.1512","MEAN_ELEMENT_THEORY":"SGP4","NORAD_CAT_ID":"48298","CENTER_NAME":"EARTH","RCS_SIZE":"LARGE"},{"TLE_LINE2":"2 48299  53.0591  24.2578 0001029 101.4408 258.6697 15.06388940 29081","REV_AT_EPOCH":"2908","MEAN_MOTION":"15.06388940","MEAN_ANOMALY":"258.6697","SITE":"AFETR","REF_FRAME":"TEME","COUNTRY_CODE":"US","GP_ID":"188520157","APOAPSIS":"547.960","INCLINATION":"53.0591","EPOCH":"2021-10-30T14:34:09.123456","PERIOD":"95.593","ELEMENT_SET_NO":"999","PERIAPSIS":"546.535","MEAN_MOTION_DOT":"0.00000155","BSTAR":"0.00002929300000","OBJECT_NAME":"STARLINK-2557","CLASSIFICATION_TYPE":"U","NORAD_CAT_ID":"48299","MEAN_ELEMENT_THEORY":"SGP4","CENTER_NAME":"EARTH","RCS_SIZE":"LARGE","TIME_SYSTEM":"UTC","RA_OF_ASC_NODE":"24.2578","TLE_LINE1":"1 48299U 21036Z   21303.60705004  .00000155  00000-0  29293-4 0  9995","ARG_OF_PERICENTER":"101.4408","FILE":"3193040","ECCENTRICITY":"0.00010290","OBJECT_TYPE":"PAYLOAD","DECAY_DATE":null,"MEAN_MOTION_DDOT":"0.0000000000000","OBJECT_ID":"2021-036Z","EPHEMERIS_TYPE":"0","LAUNCH_DATE":"2021-04-29","SEMIMAJOR_AXIS":"6925.382"}];
